{
  "type": "FeatureCollection",
  "features": [
    {
      "type": "Feature",
      "properties": {
        "norad_id": 52912,
        "name": "GAOFEN-12 03",
        "group": "resource",
        "lat": -73.45683460104594,
        "lon": -91.35205944311588,
        "alt_km": 638.6992063176667,
        "timestamp": "2025-12-19T18:58:41.250120+00:00",
        "meta_object_name": "GAOFEN-12 03",
        "meta_object_id": "2022-069A",
        "meta_epoch": "2025-12-19T06:20:03.350688",
        "meta_mean_motion": 14.7962559,
        "meta_eccentricity": 0.00020345,
        "meta_inclination": 97.8488,
        "meta_ra_of_asc_node": 240.4617,
        "meta_arg_of_pericenter": 54.61,
        "meta_mean_anomaly": 305.5301,
        "meta_ephemeris_type": 0,
        "meta_classification_type": "U",
        "meta_norad_cat_id": 52912,
        "meta_element_set_no": 999,
        "meta_rev_at_epoch": 18800,
        "meta_bstar": 0.00018875577,
        "meta_mean_motion_dot": 1.364e-05,
        "meta_mean_motion_ddot": 0,
        "tle_line1": "1 52912U 22069A   25353.26392767  .00001364  00000+0  18876-3 0  9994",
        "tle_line2": "2 52912  97.8488 240.4617 0002034  54.6100 305.5301 14.79625590188006"
      },
      "geometry": {
        "type": "Point",
        "coordinates": [
          -91.35205944311588,
          -73.45683460104594
        ]
      }
    },
    {
      "type": "Feature",
      "properties": {
        "norad_id": 54754,
        "name": "SWOT",
        "group": "resource",
        "lat": 47.69401124124992,
        "lon": -68.55231579973427,
        "alt_km": 888.5872481712431,
        "timestamp": "2025-12-19T18:58:41.250130+00:00",
        "meta_object_name": "SWOT",
        "meta_object_id": "2022-173A",
        "meta_epoch": "2025-12-19T05:01:28.718688",
        "meta_mean_motion": 14.00167804,
        "meta_eccentricity": 3.62e-05,
        "meta_inclination": 77.6108,
        "meta_ra_of_asc_node": 278.2565,
        "meta_arg_of_pericenter": 95.2456,
        "meta_mean_anomaly": 264.8737,
        "meta_ephemeris_type": 0,
        "meta_classification_type": "U",
        "meta_norad_cat_id": 54754,
        "meta_element_set_no": 999,
        "meta_rev_at_epoch": 15396,
        "meta_bstar": 3.2309058e-05,
        "meta_mean_motion_dot": 4.5e-07,
        "meta_mean_motion_ddot": 0,
        "tle_line1": "1 54754U 22173A   25353.20936017  .00000045  00000+0  32309-4 0  9995",
        "tle_line2": "2 54754  77.6108 278.2565 0000362  95.2456 264.8737 14.00167804153965"
      },
      "geometry": {
        "type": "Point",
        "coordinates": [
          -68.55231579973427,
          47.69401124124992
        ]
      }
    },
    {
      "type": "Feature",
      "properties": {
        "norad_id": 57654,
        "name": "GAOFEN-12 04",
        "group": "resource",
        "lat": 79.66504733697855,
        "lon": 139.1400830622612,
        "alt_km": 622.029196019359,
        "timestamp": "2025-12-19T18:58:41.250140+00:00",
        "meta_object_name": "GAOFEN-12 04",
        "meta_object_id": "2023-123A",
        "meta_epoch": "2025-12-19T07:10:57.425664",
        "meta_mean_motion": 14.79717769,
        "meta_eccentricity": 0.00012401,
        "meta_inclination": 97.9126,
        "meta_ra_of_asc_node": 268.957,
        "meta_arg_of_pericenter": 76.436,
        "meta_mean_anomaly": 283.699,
        "meta_ephemeris_type": 0,
        "meta_classification_type": "U",
        "meta_norad_cat_id": 57654,
        "meta_element_set_no": 999,
        "meta_rev_at_epoch": 12602,
        "meta_bstar": 0.00013210571,
        "meta_mean_motion_dot": 9.41e-06,
        "meta_mean_motion_ddot": 0,
        "tle_line1": "1 57654U 23123A   25353.29927576  .00000941  00000+0  13211-3 0  9997",
        "tle_line2": "2 57654  97.9126 268.9570 0001240  76.4360 283.6990 14.79717769126029"
      },
      "geometry": {
        "type": "Point",
        "coordinates": [
          139.1400830622612,
          79.66504733697855
        ]
      }
    },
    {
      "type": "Feature",
      "properties": {
        "norad_id": 59065,
        "name": "PARS 1",
        "group": "resource",
        "lat": -66.70467657561622,
        "lon": 127.1466446090141,
        "alt_km": 457.98177388530985,
        "timestamp": "2025-12-19T18:58:41.250150+00:00",
        "meta_object_name": "PARS 1",
        "meta_object_id": "2024-039Q",
        "meta_epoch": "2025-12-19T06:59:52.777248",
        "meta_mean_motion": 15.41116735,
        "meta_eccentricity": 0.00121528,
        "meta_inclination": 97.4637,
        "meta_ra_of_asc_node": 324.3637,
        "meta_arg_of_pericenter": 52.5248,
        "meta_mean_anomaly": 307.7101,
        "meta_ephemeris_type": 0,
        "meta_classification_type": "U",
        "meta_norad_cat_id": 59065,
        "meta_element_set_no": 999,
        "meta_rev_at_epoch": 10089,
        "meta_bstar": 0.00021691469,
        "meta_mean_motion_dot": 8.914e-05,
        "meta_mean_motion_ddot": 0,
        "tle_line1": "1 59065U 24039Q   25353.29158307  .00008914  00000+0  21691-3 0  9999",
        "tle_line2": "2 59065  97.4637 324.3637 0012152  52.5248 307.7101 15.41116735100899"
      },
      "geometry": {
        "type": "Point",
        "coordinates": [
          127.1466446090141,
          -66.70467657561622
        ]
      }
    },
    {
      "type": "Feature",
      "properties": {
        "norad_id": 59371,
        "name": "RESURS-P 4",
        "group": "resource",
        "lat": 16.555240565228786,
        "lon": 122.14646873656795,
        "alt_km": 470.3437669304767,
        "timestamp": "2025-12-19T18:58:41.250160+00:00",
        "meta_object_name": "RESURS-P 4",
        "meta_object_id": "2024-061A",
        "meta_epoch": "2025-12-19T07:17:45.709728",
        "meta_mean_motion": 15.32135235,
        "meta_eccentricity": 0.00010699,
        "meta_inclination": 97.2553,
        "meta_ra_of_asc_node": 299.4992,
        "meta_arg_of_pericenter": 59.8015,
        "meta_mean_anomaly": 300.3333,
        "meta_ephemeris_type": 0,
        "meta_classification_type": "U",
        "meta_norad_cat_id": 59371,
        "meta_element_set_no": 999,
        "meta_rev_at_epoch": 9621,
        "meta_bstar": 0.00010183829,
        "meta_mean_motion_dot": 3.083e-05,
        "meta_mean_motion_ddot": 0,
        "tle_line1": "1 59371U 24061A   25353.30400127  .00003083  00000+0  10184-3 0  9993",
        "tle_line2": "2 59371  97.2553 299.4992 0001069  59.8015 300.3333 15.32135235 96219"
      },
      "geometry": {
        "type": "Point",
        "coordinates": [
          122.14646873656795,
          16.555240565228786
        ]
      }
    },
    {
      "type": "Feature",
      "properties": {
        "norad_id": 59625,
        "name": "LEGION 1",
        "group": "resource",
        "lat": -6.995968730463169,
        "lon": 69.29826598527691,
        "alt_km": 519.2436200488155,
        "timestamp": "2025-12-19T18:58:41.250170+00:00",
        "meta_object_name": "LEGION 1",
        "meta_object_id": "2024-081A",
        "meta_epoch": "2025-12-19T06:20:26.658816",
        "meta_mean_motion": 15.16541175,
        "meta_eccentricity": 0.00036502,
        "meta_inclination": 97.5212,
        "meta_ra_of_asc_node": 67.8472,
        "meta_arg_of_pericenter": 288.1686,
        "meta_mean_anomaly": 71.9149,
        "meta_ephemeris_type": 0,
        "meta_classification_type": "U",
        "meta_norad_cat_id": 59625,
        "meta_element_set_no": 999,
        "meta_rev_at_epoch": 9026,
        "meta_bstar": 0.00017524977,
        "meta_mean_motion_dot": 3.35e-05,
        "meta_mean_motion_ddot": 0,
        "tle_line1": "1 59625U 24081A   25353.26419744  .00003350  00000+0  17525-3 0  9990",
        "tle_line2": "2 59625  97.5212  67.8472 0003650 288.1686  71.9149 15.16541175 90266"
      },
      "geometry": {
        "type": "Point",
        "coordinates": [
          69.29826598527691,
          -6.995968730463169
        ]
      }
    },
    {
      "type": "Feature",
      "properties": {
        "norad_id": 59626,
        "name": "LEGION 2",
        "group": "resource",
        "lat": 6.780157343561479,
        "lon": -110.64287313106539,
        "alt_km": 518.4283690880957,
        "timestamp": "2025-12-19T18:58:41.250180+00:00",
        "meta_object_name": "LEGION 2",
        "meta_object_id": "2024-081B",
        "meta_epoch": "2025-12-19T05:32:55.086432",
        "meta_mean_motion": 15.16553498,
        "meta_eccentricity": 0.00056272,
        "meta_inclination": 97.5215,
        "meta_ra_of_asc_node": 67.9022,
        "meta_arg_of_pericenter": 265.3267,
        "meta_mean_anomaly": 94.7324,
        "meta_ephemeris_type": 0,
        "meta_classification_type": "U",
        "meta_norad_cat_id": 59626,
        "meta_element_set_no": 999,
        "meta_rev_at_epoch": 9026,
        "meta_bstar": 0.00021133375,
        "meta_mean_motion_dot": 4.057e-05,
        "meta_mean_motion_ddot": 0,
        "tle_line1": "1 59626U 24081B   25353.23119313  .00004057  00000+0  21133-3 0  9992",
        "tle_line2": "2 59626  97.5215  67.9022 0005627 265.3267  94.7324 15.16553498 90269"
      },
      "geometry": {
        "type": "Point",
        "coordinates": [
          -110.64287313106539,
          6.780157343561479
        ]
      }
    }
  ]
}